#dP2023 12 29  6  0  0.00000000      96 __u+U IGS20 EXT  IAC
## 2294 453600.00000000   900.00000000 60307 0.2500000000000
+  118   C06C07C09C10C11C12C13C14C16C19C20C21C22C23C24C25C26
+        C27C28C29C30C32C33C34C35C36C37C38C39C41C42C43C44C45
+        C46E02E03E04E05E07E08E09E10E11E12E13E14E15E18E19E21
+        E24E25E26E27E30E31E33E34E36G01G02G03G04G05G06G07G08
+        G09G10G11G12G13G14G15G16G17G18G19G20G21G22G23G24G25
+        G26G27G28G29G30G31G32J02J03J04R01R02R03R04R05R07R08
+        R09R11R12R13R14R15R16R17R18R19R20R21R22R24R25R26  0
++         9 10  9 10  9 10  8  8  9  8  8  8  8  8  8  7  7
++         9  7 10  9  8  8  9  8 10  8  9 11  8  8  8  7  7
++         8  8  8  8  8  8  8  8  7  8  8  8  6  8  8  7  7
++         7  8  7  8  8  8  7  7  8  7  7  8  8  7  7  8  7
++         7  8  7  8  7  8  7  8  8  7  8  8  7  8  7  7  8
++         8  7  7  7  8  7  7  8 10 10  9  9 10  9  9  9  8
++         8  8  7  9  9  9  9  7  9  9  9  8  7  8 10  9  0
%c M  cc GPS ccc cccc cccc cccc cccc ccccc ccccc ccccc ccccc
%c cc cc ccc ccc cccc cccc cccc cccc ccccc ccccc ccccc ccccc
%f  0.0000000  0.000000000  0.00000000000  0.000000000000000
%f  0.0000000  0.000000000  0.00000000000  0.000000000000000
%i    0    0    0    0      0      0      0      0         0
%i    0    0    0    0      0      0      0      0         0
/* IAC                                ULTRA-RAPID PREDICTION
/* S/V CLOCKS ARE ALIGNED TO GNSS TIME                      
/* G:C1WC2W R:C1PC2P E:C1XC5X C:C2IC6I J:C1CC2S             
/* PCV:IGS20_2290 OL/AL:FES2004  NONE     YN ORB:CoN CLK:CoN
*  2023 12 30  1 30  0.00000000
PC06  -1877.137676  30635.847852  29059.918304    234.488307
PC07 -14101.732585  29067.404109 -27112.442721   -554.651506
PC09   7107.708633  35720.979279  22172.283723   -283.778755
PC10  -7523.798084  29044.563768 -29443.254737    -72.738436
PC11   7902.668017  19794.191451 -17931.943595    331.857956
PC12 -11368.219517  10841.652749 -23018.287063    811.259942
PC13  -7092.260436  40703.828582   7829.944507    401.668088
PC14  -2459.512309  17749.279869  21419.227315   -143.400819
PC16  -2374.094321  29881.124060  30032.768435   -253.058027
PC19  -7882.519275 -13488.665981 -23100.626692   -944.874165
PC20  10689.685807 -18937.014172 -17466.588913    -17.059787
PC21 -24508.806412  13349.411050    683.771448   -965.653702
PC22 -23025.798735     -1.897340 -15783.787781   -167.379211
PC23  15158.876035   9402.251054 -21463.787872   -796.727023
PC24  -6045.334738  26329.690749   6913.425854    740.534928
PC25   7408.258272  24631.151253 -10811.109944    289.731472
PC26 -14519.721743  13141.323017  19845.271090   -227.340680
PC27  18808.720525  -4585.692892  20087.294197    249.364810
PC28  25011.007385   9362.531965   8105.929393    188.920506
PC29 -16954.927311 -19120.742888  11206.376916    221.246582
PC30   2290.004033 -16741.532647  22201.279775    -12.106986
PC32  24435.814429 -13458.483093   -539.497655   -547.809734
PC33   7848.547890  13548.634806  23101.305548   -941.943826
PC34   -666.639940  17443.813943 -21784.381791    335.864658
PC35 -25340.893671  -8377.346715  -8090.594864    469.244989
PC36  -6377.804330 -25199.838671  10184.124938    -72.931234
PC37  14979.173289 -12255.377777 -20112.475108   -931.388658
PC38 -15357.488690  38712.203172  -5964.324879    127.230753
PC39  -6991.662356  25687.532388  32785.972723     -6.370234
PC41  22614.859256    612.269940  16386.236364   -876.117933
PC42 -12166.330162  19051.274223  16420.602728   -473.065004
PC43  16177.190400  19376.420344 -11930.832269     54.331286
PC44 -18786.027040   5308.269739 -19939.021660    338.092641
PC45 -15115.786857  -9001.919340  21656.819610    -59.056516
PC46   5447.242673 -26728.520174  -6010.615679   -111.489296
PE02 -21236.253822   6383.029135  19588.165016     90.769363
PE03 -29420.516616   -476.012184   3248.336595    -83.516494
PE04  19010.118737 -11821.244933 -19366.240969   -291.635412
PE05 -22610.761953 -12355.005213 -14568.101740   4705.338130
PE07   2033.475300  17103.037931  24073.300165    -95.678610
PE08 -19553.886297  11410.020562  19068.093037   -199.950428
PE09  -1918.834360 -16958.589694 -24187.985981   -280.929720
PE10   1898.478727 -23463.354169  17950.913833   -590.179286
PE11  -6029.938720 -27485.863246   9162.790906   3278.158732
PE12   8867.472271 -16396.251601  22994.491241   -840.408084
PE13   5588.038413  27355.886763  -9827.649134    -19.783019
PE14 -26841.558265 -10768.529304   8051.648983     -4.146796
PE15  -9119.172912  15915.274989 -23219.460400    -77.381812
PE18  15649.896513  15499.886663 -15165.587651    151.831649
PE19  29505.240220   2201.102195  -1002.483782   -915.310741
PE21  11561.809885  12510.920969 -24211.440523   -571.316060
PE24   5766.670191 -25152.270941  14507.433395   -513.499843
PE25 -11256.803984 -12875.448552  24160.176585     -1.252495
PE26  17071.412138  22168.569181   9669.543389    324.244543
PE27  -5284.438368  25012.377912 -14910.226046   -236.526359
PE30 -19019.693353  22419.942761   3327.085885   -782.524169
PE31  18830.084167 -22638.120304  -3072.879618    -12.699070
PE33  18392.083613   5300.505487  22587.385226      5.077346
PE34 -18281.697777  -4656.113241 -22807.403874    -86.121587
PE36 -16777.200546 -22628.196253  -9069.000361   -164.644635
PG01  16198.231536   3421.041927  20510.129123    164.862122
PG02  18744.236799   9059.853001  17131.500977   -508.434020
PG03  18303.377743  -4488.826914  18523.070833     90.321315
PG04  26417.435429   1042.352685  -3200.352221    252.678613
PG05 -13102.309273  -7548.388742 -22014.725495   -156.014211
PG06  -5348.764791 -24721.547405   8002.420250    462.140391
PG07  10126.564448 -12816.158851 -20369.670657    -24.485685
PG08  25601.893423   5510.563308  -5698.868031   -159.506144
PG09  21271.584502  -8281.932155 -13716.070405     42.406841
PG10  -9244.776862  23224.997651   8668.467307    -67.282528
PG11 -11915.021265 -23557.021505  -3134.554824   -520.372458
PG12 -18797.985719   3099.273766  18194.229636   -462.608083
PG13 -19156.894413 -13514.938542 -12891.686388    610.734340
PG14  12510.498006 -22789.799548   4966.868791    284.620406
PG15 -25807.096723  -3219.470673  -6401.955001    111.982083
PG16   7835.577514  13893.746266 -21493.408630   -394.490478
PG17   8904.314216 -13519.168170  21514.443302    721.033542
PG18  -8925.070583  14245.084186 -20501.113215   -519.224484
PG19  -1821.458229 -15331.563085  21463.172728    419.396580
PG20  -4712.569825 -19385.017147 -17562.853404    394.130389
PG21  19075.391967  13414.723604  14056.646581    140.037120
PG22   7658.454649 -22527.127006  12536.294050     57.216742
PG23 -16570.092996  20245.827250  -3935.380044    125.390043
PG24 -19054.686347 -10052.829198  15391.266983   -403.705925
PG25 -19081.156033  14717.833887  10521.565051    483.389640
PG26   1488.778853  20953.995858 -16173.503907    204.995598
PG27  16820.925990  12893.975067 -16532.321303    -88.886351
PG28   3977.464911  24073.411646  10471.515561    -83.740830
PG29 -22496.558239   5357.178822 -13199.200253   -609.318383
PG30   2396.808378 -21500.441116 -15109.487072   -451.629520
PG31   9469.434439  24505.808840   1623.049799   -226.970683
PG32  -3960.663340  14939.229371  21774.756331   -600.870631
PJ02 -35142.375516  23334.131867   6867.426887     -0.838681
PJ03 -19177.388636  23179.268998 -24922.514898    -14.123392
PJ04 -26820.753717  32218.613040  11591.904570     75.418345
PR01 -24384.503473   6232.303531  -4174.040399     73.326017
PR02 -18197.890499  11942.550921  13282.645991    -22.353511
PR03  -1309.289271  11586.958191  22724.627798     91.861583
PR04  15666.384338   4755.261968  19595.501093    217.396518
PR05  24433.976471  -4446.614278   5897.855002    124.610726
PR07    533.680928 -11370.597980 -22793.205769     72.451074
PR08 -15883.128719  -4590.879043 -19351.543479    -73.854235
PR09   9373.440512 -21261.577625 -10419.587405    161.535917
PR11  -6274.181810 -15172.954159  19521.462797   -224.283438
PR12 -11919.158887   5146.308062  21971.551945     35.030157
PR13 -10215.521676  19743.695087  12483.682557    -42.768058
PR14  -1865.359375  24552.969509  -6685.306380     25.861595
PR15   6884.174006  13967.758146 -20191.429950     83.540019
PR16  11714.516070  -4910.655972 -22112.191143     22.022550
PR17   9218.358514  18170.402123 -15306.357011     47.853668
PR18  18554.798290  17542.166845    271.141513    119.441822
PR19  18620.403406   9646.800397  14527.268362   -260.134376
PR20   6862.107870  -7824.329698  23303.152533   -105.958491
PR21  -9514.692475 -18355.142924  14965.404554    -64.876943
PR22 -18312.129793 -17703.262581  -1227.143620    100.680342
PR24  -6358.365704   8892.029796 -23022.385671    -37.886482
PR25  -8370.131702 -18737.121985  15174.193472      7.991151
PR26 -15303.813812  -4894.434194 -19798.232994    -21.551765
EOF
